ONEWEB-0574             
1 56063U 23043T   23324.34524534  .00000013  00000+0  11508-5 0  9999
2 56063  87.9252  71.0774 0001679 105.8750 254.2569 13.21826015 34111
ONEWEB-0575             
1 56064U 23043U   23324.91667824  .00000014  00000+0  00000+0 0  9993
2 56064  87.8956  55.7259 0000819  73.8045 276.7508 13.38148576 36251
ONEWEB-0576             
1 56065U 23043V   23324.91667824  .00000014  00000+0  00000+0 0  9994
2 56065  87.9034  55.7348 0001062  43.9408 135.9320 13.36172873 36254
ONEWEB-0577             
1 56066U 23043W   23324.91667824  .00000014  00000+0  00000+0 0  9995
2 56066  87.8832  55.7267 0003137  46.2026 302.5390 13.39515655 36270
ONEWEB-0578             
1 56067U 23043X   23324.33262239 -.00000098  00000+0 -26892-3 0  9998
2 56067  87.9253  71.0748 0001960 103.4782 256.6571 13.21826339 34072
ONEWEB-0579             
1 56068U 23043Y   23324.55025616  .00000082  00000+0  16681-3 0  9995
2 56068  87.9249  71.0329 0001262  91.9795 268.1483 13.21825131 34117
ONEWEB-0581             
1 56069U 23043Z   23324.91667824  .00000014  00000+0  00000+0 0  9998
2 56069  87.8658  55.7752 0001674   2.7963 359.4077 13.34587228 36249
ONEWEB-0609             
1 56070U 23043AA  23324.57151653  .00000112  00000+0  26227-3 0  9992
2 56070  87.8971  86.2790 0001522 104.8917 255.2382 13.15546753 32891
